{
    "links": {
        "self": "http://www.neowsapp.com/rest/v1/neo/3764706?api_key=iIulBulltgU6a56xZRHN4H3l9WmuAYTsLGpBGhQ2"
    },
    "id": "3764706",
    "neo_reference_id": "3764706",
    "name": "(2016 WD3)",
    "designation": "2016 WD3",
    "nasa_jpl_url": "http://ssd.jpl.nasa.gov/sbdb.cgi?sstr=3764706",
    "absolute_magnitude_h": 24.3,
    "estimated_diameter": {
        "kilometers": {
            "estimated_diameter_min": 0.0366906138,
            "estimated_diameter_max": 0.0820427065
        },
        "meters": {
            "estimated_diameter_min": 36.6906137531,
            "estimated_diameter_max": 82.0427064882
        },
        "miles": {
            "estimated_diameter_min": 0.0227984834,
            "estimated_diameter_max": 0.0509789586
        },
        "feet": {
            "estimated_diameter_min": 120.3760332259,
            "estimated_diameter_max": 269.1689931548
        }
    },
    "is_potentially_hazardous_asteroid": false,
    "close_approach_data": [
        {
            "close_approach_date": "1933-09-02",
            "close_approach_date_full": "1933-Sep-02 08:12",
            "epoch_date_close_approach": -1146498480000,
            "relative_velocity": {
                "kilometers_per_second": "15.1511683882",
                "kilometers_per_hour": "54544.2061976636",
                "miles_per_hour": "33891.6485676538"
            },
            "miss_distance": {
                "astronomical": "0.0940726157",
                "lunar": "36.5942475073",
                "kilometers": "14073062.934048559",
                "miles": "8744595.8149217542"
            },
            "orbiting_body": "Mars"
        },
        {
            "close_approach_date": "2016-12-07",
            "close_approach_date_full": "2016-Dec-07 14:26",
            "epoch_date_close_approach": 1481120760000,
            "relative_velocity": {
                "kilometers_per_second": "10.6806276232",
                "kilometers_per_hour": "38450.2594433994",
                "miles_per_hour": "23891.4959302611"
            },
            "miss_distance": {
                "astronomical": "0.0695042775",
                "lunar": "27.0371639475",
                "kilometers": "10397691.869888925",
                "miles": "6460826.135460165"
            },
            "orbiting_body": "Earth"
        },
        {
            "close_approach_date": "2018-11-17",
            "close_approach_date_full": "2018-Nov-17 10:59",
            "epoch_date_close_approach": 1542452340000,
            "relative_velocity": {
                "kilometers_per_second": "20.4186548727",
                "kilometers_per_hour": "73507.1575418449",
                "miles_per_hour": "45674.4890848203"
            },
            "miss_distance": {
                "astronomical": "0.3126634828",
                "lunar": "121.6260948092",
                "kilometers": "46773791.053661636",
                "miles": "29063886.0504411368"
            },
            "orbiting_body": "Earth"
        }
    ],
    "orbital_data": {
        "orbit_id": "4",
        "orbit_determination_date": "2017-04-06 08:22:01",
        "first_observation_date": "2016-11-23",
        "last_observation_date": "2016-11-30",
        "data_arc_in_days": 7,
        "observations_used": 29,
        "orbit_uncertainty": "8",
        "minimum_orbit_intersection": ".0504746",
        "jupiter_tisserand_invariant": "4.300",
        "epoch_osculation": "2457717.5",
        "eccentricity": ".4617263062033415",
        "semi_major_axis": "1.560142621718447",
        "inclination": "6.845097233667561",
        "ascending_node_longitude": "41.5963128710967",
        "orbital_period": "711.7785223683637",
        "perihelion_distance": ".8397837318419916",
        "perihelion_argument": "92.97825675998328",
        "aphelion_distance": "2.280501511594903",
        "perihelion_time": "2457773.847750710721",
        "mean_anomaly": "331.5006991383178",
        "mean_motion": ".5057753060630996",
        "equinox": "J2000",
        "orbit_class": {
            "orbit_class_type": "APO",
            "orbit_class_description": "Near-Earth asteroid orbits which cross the Earth’s orbit similar to that of 1862 Apollo",
            "orbit_class_range": "a (semi-major axis) > 1.0 AU; q (perihelion) < 1.017 AU"
        }
    },
    "is_sentry_object": false
}